UNKNOWN                 
1 85023U          26095.39003051  .00035451  00000+0  44611-2 0  9996
2 85023  99.8359 140.9357 0001186 181.6951 189.9591 14.81934794645624
UNKNOWN                 
1 85027U          26095.25263777  .00000194  00000+0  26028-3 0  9997
2 85027  66.0417 183.5357 0168299 129.3125 232.2999 13.74298740620210
UNKNOWN                 
1 85047U          26095.44727985  .00013966  00000+0  21801-1 0  9999
2 85047 102.1641  89.8081 0129327 118.4955 242.9262 13.47352756591951
UNKNOWN                 
1 85061U          26093.96077463  .00004687  00000+0  18539-1 0  9993
2 85061 102.4037  93.1070 0263778 332.4265  84.3946 12.77886798570118
UNKNOWN                 
1 85100U          26091.07487483  .00000438  00000+0  14496-3 0  9994
2 85100  74.0480  20.6343 0013440 225.0229 152.2993 14.40814286649098
UNKNOWN                 
1 85106U          26095.59158499  .00000790  00000+0  90744-3 0  9994
2 85106 100.0545 207.0531 0010750  86.7617 290.3032 13.73071305618692
UNKNOWN                 
1 85151U          26094.62977800  .00031489  00000+0  37308-2 0  9997
2 85151  98.3959 329.1227 0008024 128.8090 231.3840 14.84447397496240
UNKNOWN                 
1 85210U          26095.16833823  .00000503  00000+0  51631-3 0  9998
2 85210  99.8651 244.2998 0215048  24.2811 152.2493 13.71692672617703
UNKNOWN                 
1 85217U          26094.69498401  .00005098  00000+0  13277-2 0  9998
2 85217  98.0218 186.7109 0207580 146.6603 214.7860 14.37849291644081
UNKNOWN                 
1 85237U          26095.50618372  .00003568  00000+0  71841-3 0  9994
2 85237  65.5312 275.9611 0516924 335.9557  21.8133 14.02509898624291
UNKNOWN                 
1 85238U          26095.57737281  .00000058  00000+0  83493-4 0  9991
2 85238  99.0704  26.5528 0062357 252.7202 287.3636 13.88365679626632
UNKNOWN                 
1 85246U          26094.93314321  .00002710  00000+0  97212-3 0  9995
2 85246  97.9918  92.8609 0221411 330.4000  28.4795 14.21916395639155
UNKNOWN                 
1 85373U          26094.37588142  .00003519  00000+0  23783-2 0  9997
2 85373 100.4265 151.0806 0050243 302.1841 118.3421 14.00571664627896
UNKNOWN                 
1 85423U          26080.09226852 -.00000119  00000+0  00000+0 0  9992
2 85423   0.2500  63.9100 0237500 184.1600 179.3500  1.04170165    18
UNKNOWN                 
1 85431U          26093.35914132  .00001901  00000+0  44348-3 0  9995
2 85431  29.0615  94.3871 0654717  57.2715 308.9262 13.68342064  2587
UNKNOWN                 
1 85448U          26072.61808446 -.00000384  00000+0  00000+0 0  9997
2 85448  41.4606 155.5047 0007289 313.6966 141.3444 15.68404032    03
UNKNOWN                 
1 87014U          26094.90651382  .00002900  00000+0  44200-2 0  9997
2 87014 100.4807  70.4732 0051459 331.0022  54.8721 13.52486239606215
