[{"OBJECT_NAME":"UNKNOWN","OBJECT_ID":"","EPOCH":"2026-04-05T09:21:38.636064","MEAN_MOTION":14.81934794,"ECCENTRICITY":0.0001186,"INCLINATION":99.8359,"RA_OF_ASC_NODE":140.9357,"ARG_OF_PERICENTER":181.6951,"MEAN_ANOMALY":189.9591,"EPHEMERIS_TYPE":0,"CLASSIFICATION_TYPE":"U","NORAD_CAT_ID":85023,"ELEMENT_SET_NO":999,"REV_AT_EPOCH":64562,"BSTAR":0.0044611,"MEAN_MOTION_DOT":0.00035451,"MEAN_MOTION_DDOT":0},{"OBJECT_NAME":"UNKNOWN","OBJECT_ID":"","EPOCH":"2026-04-05T06:03:47.903328","MEAN_MOTION":13.7429874,"ECCENTRICITY":0.0168299,"INCLINATION":66.0417,"RA_OF_ASC_NODE":183.5357,"ARG_OF_PERICENTER":129.3125,"MEAN_ANOMALY":232.2999,"EPHEMERIS_TYPE":0,"CLASSIFICATION_TYPE":"U","NORAD_CAT_ID":85027,"ELEMENT_SET_NO":999,"REV_AT_EPOCH":62021,"BSTAR":0.00026028,"MEAN_MOTION_DOT":1.94e-6,"MEAN_MOTION_DDOT":0},{"OBJECT_NAME":"UNKNOWN","OBJECT_ID":"","EPOCH":"2026-04-05T10:44:04.979040","MEAN_MOTION":13.47352756,"ECCENTRICITY":0.0129327,"INCLINATION":102.1641,"RA_OF_ASC_NODE":89.8081,"ARG_OF_PERICENTER":118.4955,"MEAN_ANOMALY":242.9262,"EPHEMERIS_TYPE":0,"CLASSIFICATION_TYPE":"U","NORAD_CAT_ID":85047,"ELEMENT_SET_NO":999,"REV_AT_EPOCH":59195,"BSTAR":0.021801,"MEAN_MOTION_DOT":0.00013966,"MEAN_MOTION_DDOT":0},{"OBJECT_NAME":"UNKNOWN","OBJECT_ID":"","EPOCH":"2026-04-03T23:03:30.928032","MEAN_MOTION":12.77886798,"ECCENTRICITY":0.0263778,"INCLINATION":102.4037,"RA_OF_ASC_NODE":93.107,"ARG_OF_PERICENTER":332.4265,"MEAN_ANOMALY":84.3946,"EPHEMERIS_TYPE":0,"CLASSIFICATION_TYPE":"U","NORAD_CAT_ID":85061,"ELEMENT_SET_NO":999,"REV_AT_EPOCH":57011,"BSTAR":0.018539,"MEAN_MOTION_DOT":4.687e-5,"MEAN_MOTION_DDOT":0},{"OBJECT_NAME":"UNKNOWN","OBJECT_ID":"","EPOCH":"2026-04-01T01:47:49.185312","MEAN_MOTION":14.40814286,"ECCENTRICITY":0.001344,"INCLINATION":74.048,"RA_OF_ASC_NODE":20.6343,"ARG_OF_PERICENTER":225.0229,"MEAN_ANOMALY":152.2993,"EPHEMERIS_TYPE":0,"CLASSIFICATION_TYPE":"U","NORAD_CAT_ID":85100,"ELEMENT_SET_NO":999,"REV_AT_EPOCH":64909,"BSTAR":0.00014496,"MEAN_MOTION_DOT":4.38e-6,"MEAN_MOTION_DDOT":0},{"OBJECT_NAME":"UNKNOWN","OBJECT_ID":"","EPOCH":"2026-04-05T14:11:52.943136","MEAN_MOTION":13.73071305,"ECCENTRICITY":0.001075,"INCLINATION":100.0545,"RA_OF_ASC_NODE":207.0531,"ARG_OF_PERICENTER":86.7617,"MEAN_ANOMALY":290.3032,"EPHEMERIS_TYPE":0,"CLASSIFICATION_TYPE":"U","NORAD_CAT_ID":85106,"ELEMENT_SET_NO":999,"REV_AT_EPOCH":61869,"BSTAR":0.00090744,"MEAN_MOTION_DOT":7.9e-6,"MEAN_MOTION_DDOT":0},{"OBJECT_NAME":"UNKNOWN","OBJECT_ID":"","EPOCH":"2026-04-04T15:06:52.819200","MEAN_MOTION":14.84447397,"ECCENTRICITY":0.0008024,"INCLINATION":98.3959,"RA_OF_ASC_NODE":329.1227,"ARG_OF_PERICENTER":128.809,"MEAN_ANOMALY":231.384,"EPHEMERIS_TYPE":0,"CLASSIFICATION_TYPE":"U","NORAD_CAT_ID":85151,"ELEMENT_SET_NO":999,"REV_AT_EPOCH":49624,"BSTAR":0.0037308,"MEAN_MOTION_DOT":0.00031489,"MEAN_MOTION_DDOT":0},{"OBJECT_NAME":"UNKNOWN","OBJECT_ID":"","EPOCH":"2026-04-05T04:02:24.423072","MEAN_MOTION":13.71692672,"ECCENTRICITY":0.0215048,"INCLINATION":99.8651,"RA_OF_ASC_NODE":244.2998,"ARG_OF_PERICENTER":24.2811,"MEAN_ANOMALY":152.2493,"EPHEMERIS_TYPE":0,"CLASSIFICATION_TYPE":"U","NORAD_CAT_ID":85210,"ELEMENT_SET_NO":999,"REV_AT_EPOCH":61770,"BSTAR":0.00051631,"MEAN_MOTION_DOT":5.03e-6,"MEAN_MOTION_DDOT":0},{"OBJECT_NAME":"UNKNOWN","OBJECT_ID":"","EPOCH":"2026-04-04T16:40:46.618464","MEAN_MOTION":14.37849291,"ECCENTRICITY":0.020758,"INCLINATION":98.0218,"RA_OF_ASC_NODE":186.7109,"ARG_OF_PERICENTER":146.6603,"MEAN_ANOMALY":214.786,"EPHEMERIS_TYPE":0,"CLASSIFICATION_TYPE":"U","NORAD_CAT_ID":85217,"ELEMENT_SET_NO":999,"REV_AT_EPOCH":64408,"BSTAR":0.0013277,"MEAN_MOTION_DOT":5.098e-5,"MEAN_MOTION_DDOT":0},{"OBJECT_NAME":"UNKNOWN","OBJECT_ID":"","EPOCH":"2026-04-05T12:08:54.273408","MEAN_MOTION":14.02509898,"ECCENTRICITY":0.0516924,"INCLINATION":65.5312,"RA_OF_ASC_NODE":275.9611,"ARG_OF_PERICENTER":335.9557,"MEAN_ANOMALY":21.8133,"EPHEMERIS_TYPE":0,"CLASSIFICATION_TYPE":"U","NORAD_CAT_ID":85237,"ELEMENT_SET_NO":999,"REV_AT_EPOCH":62429,"BSTAR":0.00071841,"MEAN_MOTION_DOT":3.568e-5,"MEAN_MOTION_DDOT":0},{"OBJECT_NAME":"UNKNOWN","OBJECT_ID":"","EPOCH":"2026-04-05T13:51:25.010784","MEAN_MOTION":13.88365679,"ECCENTRICITY":0.0062357,"INCLINATION":99.0704,"RA_OF_ASC_NODE":26.5528,"ARG_OF_PERICENTER":252.7202,"MEAN_ANOMALY":287.3636,"EPHEMERIS_TYPE":0,"CLASSIFICATION_TYPE":"U","NORAD_CAT_ID":85238,"ELEMENT_SET_NO":999,"REV_AT_EPOCH":62663,"BSTAR":8.3493e-5,"MEAN_MOTION_DOT":5.8e-7,"MEAN_MOTION_DDOT":0},{"OBJECT_NAME":"UNKNOWN","OBJECT_ID":"","EPOCH":"2026-04-04T22:23:43.573344","MEAN_MOTION":14.21916395,"ECCENTRICITY":0.0221411,"INCLINATION":97.9918,"RA_OF_ASC_NODE":92.8609,"ARG_OF_PERICENTER":330.4,"MEAN_ANOMALY":28.4795,"EPHEMERIS_TYPE":0,"CLASSIFICATION_TYPE":"U","NORAD_CAT_ID":85246,"ELEMENT_SET_NO":999,"REV_AT_EPOCH":63915,"BSTAR":0.00097212,"MEAN_MOTION_DOT":2.71e-5,"MEAN_MOTION_DDOT":0},{"OBJECT_NAME":"UNKNOWN","OBJECT_ID":"","EPOCH":"2026-04-04T09:01:16.154688","MEAN_MOTION":14.00571664,"ECCENTRICITY":0.0050243,"INCLINATION":100.4265,"RA_OF_ASC_NODE":151.0806,"ARG_OF_PERICENTER":302.1841,"MEAN_ANOMALY":118.3421,"EPHEMERIS_TYPE":0,"CLASSIFICATION_TYPE":"U","NORAD_CAT_ID":85373,"ELEMENT_SET_NO":999,"REV_AT_EPOCH":62789,"BSTAR":0.0023783,"MEAN_MOTION_DOT":3.519e-5,"MEAN_MOTION_DDOT":0},{"OBJECT_NAME":"UNKNOWN","OBJECT_ID":"","EPOCH":"2026-03-21T02:12:52.000128","MEAN_MOTION":1.04170165,"ECCENTRICITY":0.02375,"INCLINATION":0.25,"RA_OF_ASC_NODE":63.91,"ARG_OF_PERICENTER":184.16,"MEAN_ANOMALY":179.35,"EPHEMERIS_TYPE":0,"CLASSIFICATION_TYPE":"U","NORAD_CAT_ID":85423,"ELEMENT_SET_NO":999,"REV_AT_EPOCH":1,"BSTAR":0,"MEAN_MOTION_DOT":-1.19e-6,"MEAN_MOTION_DDOT":0},{"OBJECT_NAME":"UNKNOWN","OBJECT_ID":"","EPOCH":"2026-04-03T08:37:09.810048","MEAN_MOTION":13.68342064,"ECCENTRICITY":0.0654717,"INCLINATION":29.0615,"RA_OF_ASC_NODE":94.3871,"ARG_OF_PERICENTER":57.2715,"MEAN_ANOMALY":308.9262,"EPHEMERIS_TYPE":0,"CLASSIFICATION_TYPE":"U","NORAD_CAT_ID":85431,"ELEMENT_SET_NO":999,"REV_AT_EPOCH":258,"BSTAR":0.00044348,"MEAN_MOTION_DOT":1.901e-5,"MEAN_MOTION_DDOT":0},{"OBJECT_NAME":"UNKNOWN","OBJECT_ID":"","EPOCH":"2026-03-13T14:50:02.497344","MEAN_MOTION":15.68404032,"ECCENTRICITY":0.0007289,"INCLINATION":41.4606,"RA_OF_ASC_NODE":155.5047,"ARG_OF_PERICENTER":313.6966,"MEAN_ANOMALY":141.3444,"EPHEMERIS_TYPE":0,"CLASSIFICATION_TYPE":"U","NORAD_CAT_ID":85448,"ELEMENT_SET_NO":999,"REV_AT_EPOCH":0,"BSTAR":0,"MEAN_MOTION_DOT":-3.84e-6,"MEAN_MOTION_DDOT":0},{"OBJECT_NAME":"UNKNOWN","OBJECT_ID":"","EPOCH":"2026-04-04T21:45:22.794048","MEAN_MOTION":13.52486239,"ECCENTRICITY":0.0051459,"INCLINATION":100.4807,"RA_OF_ASC_NODE":70.4732,"ARG_OF_PERICENTER":331.0022,"MEAN_ANOMALY":54.8721,"EPHEMERIS_TYPE":0,"CLASSIFICATION_TYPE":"U","NORAD_CAT_ID":87014,"ELEMENT_SET_NO":999,"REV_AT_EPOCH":60621,"BSTAR":0.00442,"MEAN_MOTION_DOT":2.9e-5,"MEAN_MOTION_DDOT":0}]
